[
  {
    "OBJECT_NAME": "STARLINK-1605",
    "OBJECT_ID": "20057G",
    "EPOCH": "2025-11-11T08:00:03.000384",
    "MEAN_MOTION": 15.52737454,
    "ECCENTRICITY": 0.0008431,
    "INCLINATION": 53.0465,
    "RA_OF_ASC_NODE": 67.4046,
    "ARG_OF_PERICENTER": 218.3866,
    "MEAN_ANOMALY": 179.4223,
    "EPHEMERIS_TYPE": 0,
    "CLASSIFICATION_TYPE": "U",
    "NORAD_CAT_ID": 46123,
    "ELEMENT_SET_NO": 999,
    "REV_AT_EPOCH": 565,
    "BSTAR": 0.0030320000000000004,
    "MEAN_MOTION_DOT": 0.00195101,
    "MEAN_MOTION_DDOT": 0.0,
    "TLE_LINE1": "1 46123U 20057G   25315.33336806  .00195101  00000+0  30320-2 0  9994",
    "TLE_LINE2": "2 46123  53.0465  67.4046 0008431 218.3866 179.4223 15.52737454  5655",
    "COMMENT": "Grouped by shell and plane from TLE"
  },
  {
    "OBJECT_NAME": "STARLINK-1614",
    "OBJECT_ID": "20057H",
    "EPOCH": "2025-11-11T08:00:03.000384",
    "MEAN_MOTION": 15.53627718,
    "ECCENTRICITY": 0.000833,
    "INCLINATION": 53.0467,
    "RA_OF_ASC_NODE": 67.1152,
    "ARG_OF_PERICENTER": 218.9933,
    "MEAN_ANOMALY": 283.7788,
    "EPHEMERIS_TYPE": 0,
    "CLASSIFICATION_TYPE": "U",
    "NORAD_CAT_ID": 46124,
    "ELEMENT_SET_NO": 999,
    "REV_AT_EPOCH": 582,
    "BSTAR": 0.0030502000000000003,
    "MEAN_MOTION_DOT": 0.00202906,
    "MEAN_MOTION_DDOT": 0.0,
    "TLE_LINE1": "1 46124U 20057H   25315.33336806  .00202906  00000+0  30502-2 0  9999",
    "TLE_LINE2": "2 46124  53.0467  67.1152 0008330 218.9933 283.7788 15.53627718  5828",
    "COMMENT": "Grouped by shell and plane from TLE"
  },
  {
    "OBJECT_NAME": "STARLINK-1596",
    "OBJECT_ID": "20057AA",
    "EPOCH": "2025-11-11T00:00:02.999808",
    "MEAN_MOTION": 15.28624259,
    "ECCENTRICITY": 0.0006328,
    "INCLINATION": 53.0484,
    "RA_OF_ASC_NODE": 69.1564,
    "ARG_OF_PERICENTER": 206.8903,
    "MEAN_ANOMALY": 160.0408,
    "EPHEMERIS_TYPE": 0,
    "CLASSIFICATION_TYPE": "U",
    "NORAD_CAT_ID": 46141,
    "ELEMENT_SET_NO": 999,
    "REV_AT_EPOCH": 586,
    "BSTAR": 0.002218,
    "MEAN_MOTION_DOT": 0.00062792,
    "MEAN_MOTION_DDOT": 0.0,
    "TLE_LINE1": "1 46141U 20057AA  25315.00003472  .00062792  00000+0  22180-2 0  9992",
    "TLE_LINE2": "2 46141  53.0484  69.1564 0006328 206.8903 160.0408 15.28624259  5862",
    "COMMENT": "Grouped by shell and plane from TLE"
  },
  {
    "OBJECT_NAME": "STARLINK-1612",
    "OBJECT_ID": "20057AZ",
    "EPOCH": "2025-11-11T06:38:35.370528",
    "MEAN_MOTION": 15.41020351,
    "ECCENTRICITY": 0.0008263,
    "INCLINATION": 53.0462,
    "RA_OF_ASC_NODE": 67.5573,
    "ARG_OF_PERICENTER": 192.8193,
    "MEAN_ANOMALY": 167.2603,
    "EPHEMERIS_TYPE": 0,
    "CLASSIFICATION_TYPE": "U",
    "NORAD_CAT_ID": 46164,
    "ELEMENT_SET_NO": 999,
    "REV_AT_EPOCH": 29033,
    "BSTAR": 0.0035177999999999997,
    "MEAN_MOTION_DOT": 0.00150042,
    "MEAN_MOTION_DDOT": 0.0,
    "TLE_LINE1": "1 46164U 20057AZ  25315.27679827  .00150042  00000+0  35178-2 0  9996",
    "TLE_LINE2": "2 46164  53.0462  67.5573 0008263 192.8193 167.2603 15.41020351290332",
    "COMMENT": "Grouped by shell and plane from TLE"
  },
  {
    "OBJECT_NAME": "STARLINK-1775",
    "OBJECT_ID": "20073M",
    "EPOCH": "2025-11-11T06:45:44.648928",
    "MEAN_MOTION": 15.41552713,
    "ECCENTRICITY": 0.0002018,
    "INCLINATION": 53.0548,
    "RA_OF_ASC_NODE": 64.914,
    "ARG_OF_PERICENTER": 17.797,
    "MEAN_ANOMALY": 342.3105,
    "EPHEMERIS_TYPE": 0,
    "CLASSIFICATION_TYPE": "U",
    "NORAD_CAT_ID": 46681,
    "ELEMENT_SET_NO": 999,
    "REV_AT_EPOCH": 27911,
    "BSTAR": 0.0033531,
    "MEAN_MOTION_DOT": 0.00145331,
    "MEAN_MOTION_DDOT": 0.0,
    "TLE_LINE1": "1 46681U 20073M   25315.28176677  .00145331  00000+0  33531-2 0  9990",
    "TLE_LINE2": "2 46681  53.0548  64.9140 0002018  17.7970 342.3105 15.41552713279110",
    "COMMENT": "Grouped by shell and plane from TLE"
  },
  {
    "OBJECT_NAME": "STARLINK-1788",
    "OBJECT_ID": "20073V",
    "EPOCH": "2025-11-11T08:00:03.000384",
    "MEAN_MOTION": 15.37281252,
    "ECCENTRICITY": 0.0002218,
    "INCLINATION": 53.0542,
    "RA_OF_ASC_NODE": 65.4705,
    "ARG_OF_PERICENTER": 356.4038,
    "MEAN_ANOMALY": 256.4306,
    "EPHEMERIS_TYPE": 0,
    "CLASSIFICATION_TYPE": "U",
    "NORAD_CAT_ID": 46689,
    "ELEMENT_SET_NO": 999,
    "REV_AT_EPOCH": 575,
    "BSTAR": 0.0039481,
    "MEAN_MOTION_DOT": 0.00148848,
    "MEAN_MOTION_DDOT": 0.0,
    "TLE_LINE1": "1 46689U 20073V   25315.33336806  .00148848  00000+0  39481-2 0  9992",
    "TLE_LINE2": "2 46689  53.0542  65.4705 0002218 356.4038 256.4306 15.37281252  5752",
    "COMMENT": "Grouped by shell and plane from TLE"
  },
  {
    "OBJECT_NAME": "STARLINK-1800",
    "OBJECT_ID": "20073AG",
    "EPOCH": "2025-11-11T08:03:13.178880",
    "MEAN_MOTION": 15.38718634,
    "ECCENTRICITY": 0.0006393,
    "INCLINATION": 53.0511,
    "RA_OF_ASC_NODE": 61.9982,
    "ARG_OF_PERICENTER": 324.5667,
    "MEAN_ANOMALY": 35.4911,
    "EPHEMERIS_TYPE": 0,
    "CLASSIFICATION_TYPE": "U",
    "NORAD_CAT_ID": 46700,
    "ELEMENT_SET_NO": 999,
    "REV_AT_EPOCH": 27916,
    "BSTAR": 0.0034588,
    "MEAN_MOTION_DOT": 0.00136435,
    "MEAN_MOTION_DDOT": 0.0,
    "TLE_LINE1": "1 46700U 20073AG  25315.33556920  .00136435  00000+0  34588-2 0  9999",
    "TLE_LINE2": "2 46700  53.0511  61.9982 0006393 324.5667  35.4911 15.38718634279167",
    "COMMENT": "Grouped by shell and plane from TLE"
  },
  {
    "OBJECT_NAME": "STARLINK-31031",
    "OBJECT_ID": "24002G",
    "EPOCH": "2025-11-11T06:35:14.108640",
    "MEAN_MOTION": 15.30171336,
    "ECCENTRICITY": 0.0001815,
    "INCLINATION": 53.1607,
    "RA_OF_ASC_NODE": 60.0894,
    "ARG_OF_PERICENTER": 100.5661,
    "MEAN_ANOMALY": 259.5544,
    "EPHEMERIS_TYPE": 0,
    "CLASSIFICATION_TYPE": "U",
    "NORAD_CAT_ID": 58711,
    "ELEMENT_SET_NO": 999,
    "REV_AT_EPOCH": 10388,
    "BSTAR": 0.0,
    "MEAN_MOTION_DOT": -2.576e-05,
    "MEAN_MOTION_DDOT": 0.0,
    "TLE_LINE1": "1 58711U 24002G   25315.27446885 -.00002576  00000+0 -74924-4 0  9991",
    "TLE_LINE2": "2 58711  53.1607  60.0894 0001815 100.5661 259.5544 15.30171336103881",
    "COMMENT": "Grouped by shell and plane from TLE"
  },
  {
    "OBJECT_NAME": "STARLINK-31102",
    "OBJECT_ID": "24002L",
    "EPOCH": "2025-11-11T06:44:19.054176",
    "MEAN_MOTION": 15.3019362,
    "ECCENTRICITY": 5.43e-05,
    "INCLINATION": 53.1606,
    "RA_OF_ASC_NODE": 60.125,
    "ARG_OF_PERICENTER": 84.4575,
    "MEAN_ANOMALY": 275.6488,
    "EPHEMERIS_TYPE": 0,
    "CLASSIFICATION_TYPE": "U",
    "NORAD_CAT_ID": 58715,
    "ELEMENT_SET_NO": 999,
    "REV_AT_EPOCH": 10388,
    "BSTAR": 6.467300000000001e-05,
    "MEAN_MOTION_DOT": 1.557e-05,
    "MEAN_MOTION_DDOT": 0.0,
    "TLE_LINE1": "1 58715U 24002L   25315.28077609  .00001557  00000+0  64673-4 0  9996",
    "TLE_LINE2": "2 58715  53.1606  60.1250 0000543  84.4575 275.6488 15.30193620103888",
    "COMMENT": "Grouped by shell and plane from TLE"
  },
  {
    "OBJECT_NAME": "STARLINK-31093",
    "OBJECT_ID": "24002N",
    "EPOCH": "2025-11-11T06:23:02.635008",
    "MEAN_MOTION": 15.30179449,
    "ECCENTRICITY": 0.0001144,
    "INCLINATION": 53.1607,
    "RA_OF_ASC_NODE": 60.0509,
    "ARG_OF_PERICENTER": 80.5093,
    "MEAN_ANOMALY": 279.6037,
    "EPHEMERIS_TYPE": 0,
    "CLASSIFICATION_TYPE": "U",
    "NORAD_CAT_ID": 58717,
    "ELEMENT_SET_NO": 999,
    "REV_AT_EPOCH": 10388,
    "BSTAR": 0.00022106,
    "MEAN_MOTION_DOT": 6.189e-05,
    "MEAN_MOTION_DDOT": 0.0,
    "TLE_LINE1": "1 58717U 24002N   25315.26600272  .00006189  00000+0  22106-3 0  9994",
    "TLE_LINE2": "2 58717  53.1607  60.0509 0001144  80.5093 279.6037 15.30179449103884",
    "COMMENT": "Grouped by shell and plane from TLE"
  },
  {
    "OBJECT_NAME": "STARLINK-31097",
    "OBJECT_ID": "24002P",
    "EPOCH": "2025-11-11T06:18:29.176416",
    "MEAN_MOTION": 15.30193196,
    "ECCENTRICITY": 8.61e-05,
    "INCLINATION": 53.1572,
    "RA_OF_ASC_NODE": 60.0118,
    "ARG_OF_PERICENTER": 53.6907,
    "MEAN_ANOMALY": 306.4173,
    "EPHEMERIS_TYPE": 0,
    "CLASSIFICATION_TYPE": "U",
    "NORAD_CAT_ID": 58718,
    "ELEMENT_SET_NO": 999,
    "REV_AT_EPOCH": 10388,
    "BSTAR": 5.133400000000001e-05,
    "MEAN_MOTION_DOT": 1.161e-05,
    "MEAN_MOTION_DDOT": 0.0,
    "TLE_LINE1": "1 58718U 24002P   25315.26283769  .00001161  00000+0  51334-4 0  9994",
    "TLE_LINE2": "2 58718  53.1572  60.0118 0000861  53.6907 306.4173 15.30193196103887",
    "COMMENT": "Grouped by shell and plane from TLE"
  },
  {
    "OBJECT_NAME": "STARLINK-31051",
    "OBJECT_ID": "24002Q",
    "EPOCH": "2025-11-11T06:26:04.563168",
    "MEAN_MOTION": 15.30182551,
    "ECCENTRICITY": 0.0001579,
    "INCLINATION": 53.1619,
    "RA_OF_ASC_NODE": 60.0452,
    "ARG_OF_PERICENTER": 47.5385,
    "MEAN_ANOMALY": 312.5749,
    "EPHEMERIS_TYPE": 0,
    "CLASSIFICATION_TYPE": "U",
    "NORAD_CAT_ID": 58719,
    "ELEMENT_SET_NO": 999,
    "REV_AT_EPOCH": 10388,
    "BSTAR": 0.00037107000000000004,
    "MEAN_MOTION_DOT": 0.00010641,
    "MEAN_MOTION_DDOT": 0.0,
    "TLE_LINE1": "1 58719U 24002Q   25315.26810837  .00010641  00000+0  37107-3 0  9991",
    "TLE_LINE2": "2 58719  53.1619  60.0452 0001579  47.5385 312.5749 15.30182551103880",
    "COMMENT": "Grouped by shell and plane from TLE"
  },
  {
    "OBJECT_NAME": "STARLINK-31040",
    "OBJECT_ID": "24002T",
    "EPOCH": "2025-11-11T06:30:38.428704",
    "MEAN_MOTION": 15.30197217,
    "ECCENTRICITY": 0.0001375,
    "INCLINATION": 53.1596,
    "RA_OF_ASC_NODE": 60.0641,
    "ARG_OF_PERICENTER": 81.0516,
    "MEAN_ANOMALY": 279.064,
    "EPHEMERIS_TYPE": 0,
    "CLASSIFICATION_TYPE": "U",
    "NORAD_CAT_ID": 58722,
    "ELEMENT_SET_NO": 999,
    "REV_AT_EPOCH": 10388,
    "BSTAR": 8.4367e-05,
    "MEAN_MOTION_DOT": 2.14e-05,
    "MEAN_MOTION_DDOT": 0.0,
    "TLE_LINE1": "1 58722U 24002T   25315.27127811  .00002140  00000+0  84367-4 0  9995",
    "TLE_LINE2": "2 58722  53.1596  60.0641 0001375  81.0516 279.0640 15.30197217103883",
    "COMMENT": "Grouped by shell and plane from TLE"
  }
]